KUZGTU 1 (RS47S)        
1 57217U 23091AV  26194.45356235  .00007265  00000+0  24905-3 0  9994
2 57217  97.5056 259.2093 0010234  12.5451 347.6042 15.30445330168395
SONATE-2                
1 59112U 24043Q   26194.37823606  .00027473  00000+0  33131-3 0  9994
2 59112  97.5541 346.4234 0006950 111.8848 248.3148 15.60724269131971
MESAT1                  
1 60209U 24125G   26193.56016104  .00047409  00000+0  45928-3 0  9999
2 60209  97.2256  51.6710 0010956 120.7531 239.4810 15.66181054113537
OOV-CUBE (TUBSAT-30)    
1 60240U 24128F   26194.40407737  .00001077  00000+0  94341-4 0  9992
2 60240  61.9937 134.1487 0041356 139.6220 220.7954 15.02869569110056
COLIBRI-S (RS67S)       
1 61746U 24199M   26194.49580501  .00014097  00000+0  26357-3 0  9999
2 61746  97.2959  68.6052 0008777 168.1444 192.0015 15.48802004141489
HORS 3 (RS81S)          
1 61753U 24199U   26194.52254914  .00024602  00000+0  34374-3 0  9998
2 61753  97.2939  70.9185 0006956 160.7566 199.3953 15.56821436141657
HORS 4 (RS82S)          
1 61754U 24199V   26194.52604201  .00035113  00000+0  39844-3 0  9993
2 61754  97.2883  72.3067 0006846 152.9427 207.2189 15.62261547141757
SIT-2086                
1 61764U 24199AF  26194.46845975  .00024262  00000+0  36324-3 0  9995
2 61764  97.2896  71.2484 0008027 149.4907 210.6816 15.54932233138513
HYPERVIEW 1G (RS66S)    
1 61772U 24199AP  26194.47343671  .00172702  00000+0  73536-3 0  9990
2 61772  97.2815  75.6781 0008239 151.7678 208.4041 15.84743740138822
ALTAIR (RS65S)          
1 61779U 24199AW  26194.47468727  .00006417  00000+0  17641-3 0  9991
2 61779  97.2998  63.6566 0011842 202.8553 157.2166 15.37483123141156
ASRTU-1 (AO-123)        
1 61781U 24199AY  26194.48656334  .00004689  00000+0  13559-3 0  9991
2 61781  97.2968  62.9224 0012821 207.1012 152.9564 15.36038130137966
SAMSAT-IONOSPHERE (RS7*)
1 61784U 24199BB  26194.50739289  .00033492  00000+0  41411-3 0  9990
2 61784  97.2906  71.0543 0008996 165.8357 194.3154 15.60006678141662
RTU MIREA 1 (RS51S)     
1 61785U 24199BC  26194.46828309  .00044667  00000+0  47018-3 0  9993
2 61785  97.2892  71.9933 0009106 160.7046 199.4560 15.64121091138576
TEVEL2-4                
1 63213U 25052D   26194.51714020  .00011498  00000+0  33514-3 0  9992
2 63213  97.3877  90.9652 0003689  55.3920 304.7671 15.35528230 74158
TEVEL2-5                
1 63214U 25052E   26194.14966326  .00011850  00000+0  34745-3 0  9999
2 63214  97.3876  90.5369 0003788  56.8499 303.3107 15.35333367 74093
TEVEL2-6                
1 63215U 25052F   26193.70635362  .00012019  00000+0  35290-3 0  9998
2 63215  97.3879  90.0772 0003781  60.8657 299.2965 15.35286778 74025
TEVEL2-1                
1 63217U 25052H   26193.67932412  .00011444  00000+0  34224-3 0  9999
2 63217  97.3853  89.6437 0004432  65.2904 294.8800 15.34718554 74007
TEVEL2-3                
1 63218U 25052J   26193.67298572  .00011907  00000+0  35527-3 0  9993
2 63218  97.3855  89.6625 0004207  66.7009 293.4677 15.34780805 74006
TEVEL2-2                
1 63219U 25052K   26193.67946927  .00011375  00000+0  34007-3 0  9999
2 63219  97.3850  89.6469 0004491  65.9197 294.2516 15.34729067 74006
OTP-2                   
1 63235U 25052AB  26194.15971094  .00004151  00000+0  17254-3 0  9993
2 63235  97.3843  86.2042 0008274  76.7823 283.4337 15.24321389 73829
TEVEL2-9                
1 63237U 25052AD  26194.14738760  .00010512  00000+0  33505-3 0  9990
2 63237  97.3915  89.4327 0007831  62.8126 297.3913 15.32691499 74008
TEVEL2-7                
1 63238U 25052AE  26194.19344972  .00010302  00000+0  33165-3 0  9993
2 63238  97.3914  89.3836 0007880  62.2536 297.9504 15.32377628 74002
TEVEL2-8                
1 63239U 25052AF  26193.67954412  .00011622  00000+0  37402-3 0  9996
2 63239  97.3914  88.8465 0007981  64.8281 295.3788 15.32353925 73922
INNOSAT 16 (RS92S7)     
1 64878U 25155C   26194.50054765  .00003208  00000+0  12846-3 0  9991
2 64878  97.4577 161.5517 0012471  93.5471 266.7193 15.25727347 84687
GEOSCAN 6 (RS92S6)      
1 64879U 25155D   26194.46621253  .00006231  00000+0  21276-3 0  9995
2 64879  97.4567 163.1310 0010006  87.0139 273.2246 15.30633182 84789
GEOSCAN 1 (RS92S1)      
1 64880U 25155E   26194.45799462  .00006936  00000+0  23188-3 0  9990
2 64880  97.4563 163.2945 0009957  87.2612 272.9769 15.31279201 84799
239ALFEROV (RS61S)      
1 64881U 25155F   26194.51918108  .00008967  00000+0  27777-3 0  9992
2 64881  97.4562 164.0091 0009637  86.7499 273.4846 15.33640026 84849
GEOSCAN 2 (RS92S2)      
1 64890U 25155Q   26194.51249603  .00006708  00000+0  22258-3 0  9999
2 64890  97.4561 163.5120 0009111  77.1186 283.1073 15.31537927 84819
GEOSCAN 5 (RS92S5)      
1 64891U 25155R   26194.50283186  .00008689  00000+0  26674-3 0  9999
2 64891  97.4554 164.1400 0008657  91.0449 269.1786 15.33946223 84855
GEOSCAN 4 (RS92S4)      
1 64892U 25155S   26194.48427897  .00008788  00000+0  26832-3 0  9992
2 64892  97.4559 164.1776 0008599  91.3580 268.8648 15.34113008 84852
