OBJECT_NAME,OBJECT_ID,EPOCH,MEAN_MOTION,ECCENTRICITY,INCLINATION,RA_OF_ASC_NODE,ARG_OF_PERICENTER,MEAN_ANOMALY,EPHEMERIS_TYPE,CLASSIFICATION_TYPE,NORAD_CAT_ID,ELEMENT_SET_NO,REV_AT_EPOCH,BSTAR,MEAN_MOTION_DOT,MEAN_MOTION_DDOT
KUZGTU 1 (RS47S),2023-091AV,2026-07-13T10:53:07.787040,15.30445330,.0010234,97.5056,259.2093,12.5451,347.6042,0,U,57217,999,16839,.24905E-3,.7265E-4,0
SONATE-2,2024-043Q,2026-07-13T09:04:39.595584,15.60724269,.000695,97.5541,346.4234,111.8848,248.3148,0,U,59112,999,13197,.33131E-3,.27473E-3,0
MESAT1,2024-125G,2026-07-12T13:26:37.913856,15.66181054,.00109567,97.2256,51.6710,120.7531,239.4810,0,U,60209,999,11353,.45928267E-3,.47409E-3,0
OOV-CUBE (TUBSAT-30),2024-128F,2026-07-13T09:41:52.284768,15.02869569,.0041356,61.9937,134.1487,139.6220,220.7954,0,U,60240,999,11005,.94341E-4,.1077E-4,0
COLIBRI-S (RS67S),2024-199M,2026-07-13T11:53:57.552864,15.48802004,.0008777,97.2959,68.6052,168.1444,192.0015,0,U,61746,999,14148,.26357E-3,.14097E-3,0
HORS 3 (RS81S),2024-199U,2026-07-13T12:32:28.245696,15.56821436,.0006956,97.2939,70.9185,160.7566,199.3953,0,U,61753,999,14165,.34374E-3,.24602E-3,0
HORS 4 (RS82S),2024-199V,2026-07-13T12:37:30.029664,15.62261547,.0006846,97.2883,72.3067,152.9427,207.2189,0,U,61754,999,14175,.39844E-3,.35113E-3,0
SIT-2086,2024-199AF,2026-07-13T11:14:34.922400,15.54932233,.0008027,97.2896,71.2484,149.4907,210.6816,0,U,61764,999,13851,.36324E-3,.24262E-3,0
HYPERVIEW 1G (RS66S),2024-199AP,2026-07-13T11:21:44.931744,15.84743740,.0008239,97.2815,75.6781,151.7678,208.4041,0,U,61772,999,13882,.73536E-3,.172702E-2,0
ALTAIR (RS65S),2024-199AW,2026-07-13T11:23:32.980128,15.37483123,.0011842,97.2998,63.6566,202.8553,157.2166,0,U,61779,999,14115,.17641E-3,.6417E-4,0
ASRTU-1 (AO-123),2024-199AY,2026-07-13T11:40:39.072576,15.36038130,.0012821,97.2968,62.9224,207.1012,152.9564,0,U,61781,999,13796,.13559E-3,.4689E-4,0
SAMSAT-IONOSPHERE (RS75S),2024-199BB,2026-07-13T12:10:38.745696,15.60006678,.0008996,97.2906,71.0543,165.8357,194.3154,0,U,61784,999,14166,.41411E-3,.33492E-3,0
RTU MIREA 1 (RS51S),2024-199BC,2026-07-13T11:14:19.658976,15.64121091,.0009106,97.2892,71.9933,160.7046,199.4560,0,U,61785,999,13857,.47018E-3,.44667E-3,0
TEVEL2-4,2025-052D,2026-07-13T12:24:40.913280,15.35528230,.0003689,97.3877,90.9652,55.3920,304.7671,0,U,63213,999,7415,.33514E-3,.11498E-3,0
TEVEL2-5,2025-052E,2026-07-13T03:35:30.905664,15.35333367,.00037888,97.3876,90.5369,56.8499,303.3107,0,U,63214,999,7409,.34745321E-3,.1185E-3,0
TEVEL2-6,2025-052F,2026-07-12T16:57:08.952768,15.35286778,.00037818,97.3879,90.0772,60.8657,299.2965,0,U,63215,999,7402,.35290328E-3,.12019E-3,0
TEVEL2-1,2025-052H,2026-07-12T16:18:13.603968,15.34718554,.00044329,97.3853,89.6437,65.2904,294.8800,0,U,63217,999,7400,.3422388E-3,.11444E-3,0
TEVEL2-3,2025-052J,2026-07-12T16:09:05.966208,15.34780805,.00042079,97.3855,89.6625,66.7009,293.4677,0,U,63218,999,7400,.35526735E-3,.11907E-3,0
TEVEL2-2,2025-052K,2026-07-12T16:18:26.144928,15.34729067,.00044915,97.3850,89.6469,65.9197,294.2516,0,U,63219,999,7400,.34006669E-3,.11375E-3,0
OTP-2,2025-052AB,2026-07-13T03:49:59.025216,15.24321389,.0008274,97.3843,86.2042,76.7823,283.4337,0,U,63235,999,7382,.17254E-3,.4151E-4,0
TEVEL2-9,2025-052AD,2026-07-13T03:32:14.288640,15.32691499,.00078316,97.3915,89.4327,62.8126,297.3913,0,U,63237,999,7400,.33504592E-3,.10512E-3,0
TEVEL2-7,2025-052AE,2026-07-13T04:38:34.055808,15.32377628,.000788,97.3914,89.3836,62.2536,297.9504,0,U,63238,999,7400,.33165E-3,.10302E-3,0
TEVEL2-8,2025-052AF,2026-07-12T16:18:32.611968,15.32353925,.00079812,97.3914,88.8465,64.8281,295.3788,0,U,63239,999,7392,.37402212E-3,.11622E-3,0
INNOSAT 16 (RS92S7),2025-155C,2026-07-13T12:00:47.316960,15.25727347,.0012471,97.4577,161.5517,93.5471,266.7193,0,U,64878,999,8468,.12846E-3,.3208E-4,0
GEOSCAN 6 (RS92S6),2025-155D,2026-07-13T11:11:20.762592,15.30633182,.0010006,97.4567,163.1310,87.0139,273.2246,0,U,64879,999,8478,.21276E-3,.6231E-4,0
GEOSCAN 1 (RS92S1),2025-155E,2026-07-13T10:59:30.735168,15.31279201,.0009957,97.4563,163.2945,87.2612,272.9769,0,U,64880,999,8479,.23188E-3,.6936E-4,0
239ALFEROV (RS61S),2025-155F,2026-07-13T12:27:37.245312,15.33640026,.0009637,97.4562,164.0091,86.7499,273.4846,0,U,64881,999,8484,.27777E-3,.8967E-4,0
GEOSCAN 2 (RS92S2),2025-155Q,2026-07-13T12:17:59.656992,15.31537927,.0009111,97.4561,163.5120,77.1186,283.1073,0,U,64890,999,8481,.22258E-3,.6708E-4,0
GEOSCAN 5 (RS92S5),2025-155R,2026-07-13T12:04:04.672704,15.33946223,.0008657,97.4554,164.1400,91.0449,269.1786,0,U,64891,999,8485,.26674E-3,.8689E-4,0
GEOSCAN 4 (RS92S4),2025-155S,2026-07-13T11:37:21.703008,15.34113008,.0008599,97.4559,164.1776,91.3580,268.8648,0,U,64892,999,8485,.26832E-3,.8788E-4,0
